STARLINK-1991
1 17587C 21009AR  21326.12389315 -.00001252  00000-0 -83890-4 0  3267
2 17587  53.0538 213.1857 0002195  74.1649  67.9351 15.06394451    12
